UNKNOWN                 
1 82162U          26080.07544801  .00003558  00000+0  52215-2 0  9991
2 82162 100.4713  15.2434 0061351 352.4279   7.5923 13.54429183517610
UNKNOWN                 
1 82180U          26078.43699029  .00005308  00000+0  70253-3 0  9999
2 82180  65.6557  14.1462 0294487 167.4909 193.3716 14.54956283615798
UNKNOWN                 
1 82189U          26082.64452802  .00000308  00000+0  11664-3 0  9998
2 82189  74.0339 223.2836 0016007  26.8919 333.3060 14.35291362646898
UNKNOWN                 
1 82199U          26083.47441753  .00000485  00000+0  40653-3 0  9990
2 82199  82.9691 157.4094 0039403 108.5818 271.2786 13.85904023623780
UNKNOWN                 
1 82205U          26083.62874981  .00001588  00000+0  45996-3 0  9998
2 82205  63.0107 315.9378 0496706 303.5263  51.9262 13.94076768622204
UNKNOWN                 
1 82223U          26077.63672177  .00002372  00000+0  12823-2 0  9999
2 82223  99.3155 332.3329 0069351  76.3140 284.5740 14.12383873462328
UNKNOWN                 
1 82250U          26080.57934323  .00004149  00000+0  21290-2 0  9992
2 82250  98.9067 350.7509 0069875 273.3328 208.8658 14.14666342630609
UNKNOWN                 
1 82272U          26081.84077831  .00001041  00000+0  33654-2 0  9994
2 82272  67.5292  19.4505 0753936  41.7560 323.8526 12.33640861284281
UNKNOWN                 
1 82303U          26083.49272296  .00019883  00000+0  15235-1 0  9991
2 82303  81.9358 274.8392 0040975  19.3284   9.5834 13.92731125528568
UNKNOWN                 
1 82311U          26083.38910696  .00000471  00000+0  71997-3 0  9993
2 82311  99.4209 137.5712 0108751  52.6541 308.4444 13.54684440564080
UNKNOWN                 
1 82363U          26082.10449545  .00000820  00000+0  13902-2 0  9998
2 82363  66.9387 339.0574 0450802 100.9772 264.2309 13.15706636303469
UNKNOWN                 
1 82369U          26080.49928462  .00000031  00000+0  49562-4 0  9991
2 82369  98.8953  97.5799 0084129  66.1756 294.8198 13.98233579570972
