CCSDS_OMM_VERS = 2.0
CREATION_DATE  = 
ORIGINATOR     = 

OBJECT_NAME    = UNKNOWN
OBJECT_ID      = 
CENTER_NAME    = EARTH
REF_FRAME      = TEME
TIME_SYSTEM    = UTC
MEAN_ELEMENT_THEORY = SGP/SGP4

EPOCH          = 2026-03-21T01:48:38.708064
MEAN_MOTION    = 13.54429183
ECCENTRICITY   = .0061351
INCLINATION    = 100.4713
RA_OF_ASC_NODE = 15.2434
ARG_OF_PERICENTER = 352.4279
MEAN_ANOMALY   = 7.5923

EPHEMERIS_TYPE = 0
CLASSIFICATION_TYPE = U
NORAD_CAT_ID   = 82162
ELEMENT_SET_NO = 999
REV_AT_EPOCH   = 51761
BSTAR          = .52215E-2
MEAN_MOTION_DOT = .3558E-4
MEAN_MOTION_DDOT = 0

CCSDS_OMM_VERS = 2.0
CREATION_DATE  = 
ORIGINATOR     = 

OBJECT_NAME    = UNKNOWN
OBJECT_ID      = 
CENTER_NAME    = EARTH
REF_FRAME      = TEME
TIME_SYSTEM    = UTC
MEAN_ELEMENT_THEORY = SGP/SGP4

EPOCH          = 2026-03-19T10:29:15.961056
MEAN_MOTION    = 14.54956283
ECCENTRICITY   = .0294487
INCLINATION    = 65.6557
RA_OF_ASC_NODE = 14.1462
ARG_OF_PERICENTER = 167.4909
MEAN_ANOMALY   = 193.3716

EPHEMERIS_TYPE = 0
CLASSIFICATION_TYPE = U
NORAD_CAT_ID   = 82180
ELEMENT_SET_NO = 999
REV_AT_EPOCH   = 61579
BSTAR          = .70253E-3
MEAN_MOTION_DOT = .5308E-4
MEAN_MOTION_DDOT = 0

CCSDS_OMM_VERS = 2.0
CREATION_DATE  = 
ORIGINATOR     = 

OBJECT_NAME    = UNKNOWN
OBJECT_ID      = 
CENTER_NAME    = EARTH
REF_FRAME      = TEME
TIME_SYSTEM    = UTC
MEAN_ELEMENT_THEORY = SGP/SGP4

EPOCH          = 2026-03-23T15:28:07.220928
MEAN_MOTION    = 14.35291362
ECCENTRICITY   = .0016007
INCLINATION    = 74.0339
RA_OF_ASC_NODE = 223.2836
ARG_OF_PERICENTER = 26.8919
MEAN_ANOMALY   = 333.3060

EPHEMERIS_TYPE = 0
CLASSIFICATION_TYPE = U
NORAD_CAT_ID   = 82189
ELEMENT_SET_NO = 999
REV_AT_EPOCH   = 64689
BSTAR          = .11664E-3
MEAN_MOTION_DOT = .308E-5
MEAN_MOTION_DDOT = 0

CCSDS_OMM_VERS = 2.0
CREATION_DATE  = 
ORIGINATOR     = 

OBJECT_NAME    = UNKNOWN
OBJECT_ID      = 
CENTER_NAME    = EARTH
REF_FRAME      = TEME
TIME_SYSTEM    = UTC
MEAN_ELEMENT_THEORY = SGP/SGP4

EPOCH          = 2026-03-24T11:23:09.674592
MEAN_MOTION    = 13.85904023
ECCENTRICITY   = .0039403
INCLINATION    = 82.9691
RA_OF_ASC_NODE = 157.4094
ARG_OF_PERICENTER = 108.5818
MEAN_ANOMALY   = 271.2786

EPHEMERIS_TYPE = 0
CLASSIFICATION_TYPE = U
NORAD_CAT_ID   = 82199
ELEMENT_SET_NO = 999
REV_AT_EPOCH   = 62378
BSTAR          = .40653E-3
MEAN_MOTION_DOT = .485E-5
MEAN_MOTION_DDOT = 0

CCSDS_OMM_VERS = 2.0
CREATION_DATE  = 
ORIGINATOR     = 

OBJECT_NAME    = UNKNOWN
OBJECT_ID      = 
CENTER_NAME    = EARTH
REF_FRAME      = TEME
TIME_SYSTEM    = UTC
MEAN_ELEMENT_THEORY = SGP/SGP4

EPOCH          = 2026-03-24T15:05:23.983584
MEAN_MOTION    = 13.94076768
ECCENTRICITY   = .0496706
INCLINATION    = 63.0107
RA_OF_ASC_NODE = 315.9378
ARG_OF_PERICENTER = 303.5263
MEAN_ANOMALY   = 51.9262

EPHEMERIS_TYPE = 0
CLASSIFICATION_TYPE = U
NORAD_CAT_ID   = 82205
ELEMENT_SET_NO = 999
REV_AT_EPOCH   = 62220
BSTAR          = .45996E-3
MEAN_MOTION_DOT = .1588E-4
MEAN_MOTION_DDOT = 0

CCSDS_OMM_VERS = 2.0
CREATION_DATE  = 
ORIGINATOR     = 

OBJECT_NAME    = UNKNOWN
OBJECT_ID      = 
CENTER_NAME    = EARTH
REF_FRAME      = TEME
TIME_SYSTEM    = UTC
MEAN_ELEMENT_THEORY = SGP/SGP4

EPOCH          = 2026-03-18T15:16:52.760928
MEAN_MOTION    = 14.12383873
ECCENTRICITY   = .0069351
INCLINATION    = 99.3155
RA_OF_ASC_NODE = 332.3329
ARG_OF_PERICENTER = 76.3140
MEAN_ANOMALY   = 284.5740

EPHEMERIS_TYPE = 0
CLASSIFICATION_TYPE = U
NORAD_CAT_ID   = 82223
ELEMENT_SET_NO = 999
REV_AT_EPOCH   = 46232
BSTAR          = .12823E-2
MEAN_MOTION_DOT = .2372E-4
MEAN_MOTION_DDOT = 0

CCSDS_OMM_VERS = 2.0
CREATION_DATE  = 
ORIGINATOR     = 

OBJECT_NAME    = UNKNOWN
OBJECT_ID      = 
CENTER_NAME    = EARTH
REF_FRAME      = TEME
TIME_SYSTEM    = UTC
MEAN_ELEMENT_THEORY = SGP/SGP4

EPOCH          = 2026-03-21T13:54:15.255072
MEAN_MOTION    = 14.14666342
ECCENTRICITY   = .0069875
INCLINATION    = 98.9067
RA_OF_ASC_NODE = 350.7509
ARG_OF_PERICENTER = 273.3328
MEAN_ANOMALY   = 208.8658

EPHEMERIS_TYPE = 0
CLASSIFICATION_TYPE = U
NORAD_CAT_ID   = 82250
ELEMENT_SET_NO = 999
REV_AT_EPOCH   = 63060
BSTAR          = .2129E-2
MEAN_MOTION_DOT = .4149E-4
MEAN_MOTION_DDOT = 0

CCSDS_OMM_VERS = 2.0
CREATION_DATE  = 
ORIGINATOR     = 

OBJECT_NAME    = UNKNOWN
OBJECT_ID      = 
CENTER_NAME    = EARTH
REF_FRAME      = TEME
TIME_SYSTEM    = UTC
MEAN_ELEMENT_THEORY = SGP/SGP4

EPOCH          = 2026-03-22T20:10:43.245984
MEAN_MOTION    = 12.33640861
ECCENTRICITY   = .0753936
INCLINATION    = 67.5292
RA_OF_ASC_NODE = 19.4505
ARG_OF_PERICENTER = 41.7560
MEAN_ANOMALY   = 323.8526

EPHEMERIS_TYPE = 0
CLASSIFICATION_TYPE = U
NORAD_CAT_ID   = 82272
ELEMENT_SET_NO = 999
REV_AT_EPOCH   = 28428
BSTAR          = .33654E-2
MEAN_MOTION_DOT = .1041E-4
MEAN_MOTION_DDOT = 0

CCSDS_OMM_VERS = 2.0
CREATION_DATE  = 
ORIGINATOR     = 

OBJECT_NAME    = UNKNOWN
OBJECT_ID      = 
CENTER_NAME    = EARTH
REF_FRAME      = TEME
TIME_SYSTEM    = UTC
MEAN_ELEMENT_THEORY = SGP/SGP4

EPOCH          = 2026-03-24T11:49:31.263744
MEAN_MOTION    = 13.92731125
ECCENTRICITY   = .0040975
INCLINATION    = 81.9358
RA_OF_ASC_NODE = 274.8392
ARG_OF_PERICENTER = 19.3284
MEAN_ANOMALY   = 9.5834

EPHEMERIS_TYPE = 0
CLASSIFICATION_TYPE = U
NORAD_CAT_ID   = 82303
ELEMENT_SET_NO = 999
REV_AT_EPOCH   = 52856
BSTAR          = .15235E-1
MEAN_MOTION_DOT = .19883E-3
MEAN_MOTION_DDOT = 0

CCSDS_OMM_VERS = 2.0
CREATION_DATE  = 
ORIGINATOR     = 

OBJECT_NAME    = UNKNOWN
OBJECT_ID      = 
CENTER_NAME    = EARTH
REF_FRAME      = TEME
TIME_SYSTEM    = UTC
MEAN_ELEMENT_THEORY = SGP/SGP4

EPOCH          = 2026-03-24T09:20:18.841344
MEAN_MOTION    = 13.54684440
ECCENTRICITY   = .0108751
INCLINATION    = 99.4209
RA_OF_ASC_NODE = 137.5712
ARG_OF_PERICENTER = 52.6541
MEAN_ANOMALY   = 308.4444

EPHEMERIS_TYPE = 0
CLASSIFICATION_TYPE = U
NORAD_CAT_ID   = 82311
ELEMENT_SET_NO = 999
REV_AT_EPOCH   = 56408
BSTAR          = .71997E-3
MEAN_MOTION_DOT = .471E-5
MEAN_MOTION_DDOT = 0

CCSDS_OMM_VERS = 2.0
CREATION_DATE  = 
ORIGINATOR     = 

OBJECT_NAME    = UNKNOWN
OBJECT_ID      = 
CENTER_NAME    = EARTH
REF_FRAME      = TEME
TIME_SYSTEM    = UTC
MEAN_ELEMENT_THEORY = SGP/SGP4

EPOCH          = 2026-03-23T02:30:28.406880
MEAN_MOTION    = 13.15706636
ECCENTRICITY   = .0450802
INCLINATION    = 66.9387
RA_OF_ASC_NODE = 339.0574
ARG_OF_PERICENTER = 100.9772
MEAN_ANOMALY   = 264.2309

EPHEMERIS_TYPE = 0
CLASSIFICATION_TYPE = U
NORAD_CAT_ID   = 82363
ELEMENT_SET_NO = 999
REV_AT_EPOCH   = 30346
BSTAR          = .13902E-2
MEAN_MOTION_DOT = .82E-5
MEAN_MOTION_DDOT = 0

CCSDS_OMM_VERS = 2.0
CREATION_DATE  = 
ORIGINATOR     = 

OBJECT_NAME    = UNKNOWN
OBJECT_ID      = 
CENTER_NAME    = EARTH
REF_FRAME      = TEME
TIME_SYSTEM    = UTC
MEAN_ELEMENT_THEORY = SGP/SGP4

EPOCH          = 2026-03-21T11:58:58.191168
MEAN_MOTION    = 13.98233579
ECCENTRICITY   = .0084129
INCLINATION    = 98.8953
RA_OF_ASC_NODE = 97.5799
ARG_OF_PERICENTER = 66.1756
MEAN_ANOMALY   = 294.8198

EPHEMERIS_TYPE = 0
CLASSIFICATION_TYPE = U
NORAD_CAT_ID   = 82369
ELEMENT_SET_NO = 999
REV_AT_EPOCH   = 57097
BSTAR          = .49562E-4
MEAN_MOTION_DOT = .31E-6
MEAN_MOTION_DDOT = 0

